[{"OBJECT_NAME":"STARLINK-31712","OBJECT_ID":"2024-071H","EPOCH":"2026-03-09T03:58:58.275264","MEAN_MOTION":15.27576127,"ECCENTRICITY":8.367e-5,"INCLINATION":42.9962,"RA_OF_ASC_NODE":354.1129,"ARG_OF_PERICENTER":63.8061,"MEAN_ANOMALY":296.2877,"EPHEMERIS_TYPE":0,"CLASSIFICATION_TYPE":"U","NORAD_CAT_ID":59491,"ELEMENT_SET_NO":999,"REV_AT_EPOCH":10799,"BSTAR":-0.00011946925,"MEAN_MOTION_DOT":-3.547e-5,"MEAN_MOTION_DDOT":0},{"OBJECT_NAME":"OBJECT BC","OBJECT_ID":"2025-313BC","EPOCH":"2026-03-09T04:33:08.504064","MEAN_MOTION":15.29126358,"ECCENTRICITY":0.00084789,"INCLINATION":97.3985,"RA_OF_ASC_NODE":144.811,"ARG_OF_PERICENTER":328.9209,"MEAN_ANOMALY":31.1528,"EPHEMERIS_TYPE":0,"CLASSIFICATION_TYPE":"U","NORAD_CAT_ID":67298,"ELEMENT_SET_NO":999,"REV_AT_EPOCH":789,"BSTAR":0.0026410397,"MEAN_MOTION_DOT":0.00075331,"MEAN_MOTION_DDOT":0}]
