STARLINK-31712          
1 59491U 24071H   26068.16595226 -.00003547  00000+0 -11947-3 0  9995
2 59491  42.9962 354.1129 0000836  63.8061 296.2877 15.27576127107998
2025-313BC              
1 67298U 25313BC  26068.18968176  .00075331  00000+0  26410-2 0  9997
2 67298  97.3985 144.8110 0008478 328.9209  31.1528 15.29126358  7890
